[
  {
    "id": 1,
    "image": "/home1.jpeg",
    "project": "163 Apts.",
    "address": "16275 NE 19th Ct,Miami",
    "zipcode": 33162,
    "district": 2,
    "phone": "305-957-0007",
    "units": 26,
    "projectType": "Family",
    "housingType": "Public"
  },
  {
    "id": 2,
    "image": "/home2.jpeg",
    "project": "2135 Apts.",
    "address": "2135 NE 169 St, North Miami Beach",
    "zipcode": 33162,
    "district": 4,
    "phone": "305-957-0007",
    "units": 24,
    "projectType": "Family",
    "housingType": "Private"
  },
  {
    "id": 3,
    "image": "/home3.png",
    "project": "46 St. Duplexes",
    "address": "Scattered sites within NW area, Miami",
    "zipcode": 33142,
    "district": 3,
    "phone": "305-758-7022",
    "units": 14,
    "projectType": "Family",
    "housingType": "Public"
  },
  {
    "id": 4,
    "image": "/home1.jpeg",
    "project": "80 Duplexes",
    "address": "2401-2435 NW 80 St, Miami",
    "zipcode": 33147,
    "district": 2,
    "phone": "305-758-7022",
    "units": 12,
    "projectType": "Family",
    "housingType": "Private"
  },
  {
    "id": 5,
    "image": "/home2.jpeg",
    "project": "A.LR. Organization",
    "address": "160 NW 56 St, Miami",
    "zipcode": 33127,
    "district": 3,
    "phone": "954-261-0861",
    "units": 19,
    "projectType": "Family",
    "housingType": "Public"
  },
  {
    "id": 6,
    "image": "/home3.png",
    "project": "Alhambra Cove Apartments",
    "address": "1560 NW 119th St, Miami",
    "zipcode": 33167,
    "district": 2,
    "phone": "305-688-5084",
    "units": 240,
    "projectType": "Family",
    "housingType": "Private"
  },
  {
    "id": 7,
    "image": "/home1.jpeg",
    "project": "Allapattah Garden Apartments",
    "address": "3400 NW 11 Place, Miami",
    "zipcode": 33127,
    "district": 3,
    "phone": "305-633-8111",
    "units": 128,
    "projectType": "Family",
    "housingType": "Public"
  },
  {
    "id": 8,
    "image": "/home2.jpeg",
    "project": "Amber Garden",
    "address": "1320 NW 24 St, Miami",
    "zipcode": 33142,
    "district": 3,
    "phone": "305-403-3720.",
    "units": 110,
    "projectType": "Elderly",
    "housingType": "Private"
  },
  {
    "id": 9,
    "image": "/home3.png",
    "project": "Amistad Apartments",
    "address": "826 SW 5th Ave. & 515 SW 9th St. Miami",
    "zipcode": 33130,
    "district": 5,
    "phone": "305-270-0870",
    "units": 89,
    "projectType": "Family",
    "housingType": "Public"
  },
  {
    "id": 10,
    "image": "/home1.jpeg",
    "project": "Anchorage Apartments",
    "address": "2320 NW 62nd St, Miami",
    "zipcode": 33147,
    "district": 3,
    "phone": "305-384-7884",
    "units": 22,
    "projectType": "Family",
    "housingType": "Private"
  },
  {
    "id": 11,
    "image": "/home2.jpeg",
    "project": "Aspen Lakes",
    "address": "18821 NE 3rd Court,Miami",
    "zipcode": 33179,
    "district": 4,
    "phone": "305-651-9551",
    "units": 226,
    "projectType": "Family",
    "housingType": "Public"
  },
  {
    "id": 12,
    "image": "/home3.png",
    "project": "Aswan Village Apartments",
    "address": "2888 NW 132nd St, Miami",
    "zipcode": 33054,
    "district": 1,
    "phone": "305-688-5566",
    "units": 216,
    "projectType": "Family",
    "housingType": "Private"
  },
  {
    "id": 13,
    "image": "/home1.jpeg",
    "project": "Audrey Edmonson (7th Ave Village)",
    "address": "6101 NW 7th Ave, Miami",
    "zipcode": 33127,
    "district": 2,
    "phone": "305-517-3066",
    "units": 76,
    "projectType": "Family",
    "housingType": "Public"
  },
  {
    "id": 14,
    "image": "/home2.jpeg",
    "project": "Barbella Gardens",
    "address": "17050 NW 55 Ave, Miami",
    "zipcode": 33055,
    "district": 13,
    "phone": "954-559-9816",
    "units": 11,
    "projectType": "Family",
    "housingType": "Private"
  },
  {
    "id": 15,
    "image": "/home3.png",
    "project": "Baywinds Apartments",
    "address": "11900 NE 16 Ave, Miami",
    "zipcode": 33161,
    "district": 4,
    "phone": "305-899-5873",
    "units": 204,
    "projectType": "Family",
    "housingType": "Public"
  },
  {
    "id": 16,
    "image": "/home1.jpeg",
    "project": "Biscayne Court",
    "address": "5211 NW 17 Ave, Miami",
    "zipcode": 33142,
    "district": 3,
    "phone": "305-696-6223",
    "units": 60,
    "projectType": "Elderly",
    "housingType": "Private"
  },
  {
    "id": 17,
    "image": "/home2.jpeg",
    "project": "Bonita Pointe Apartments",
    "address": "613 E.Palm Drive,Florida City",
    "zipcode": 33034,
    "district": 9,
    "phone": "305-246-4222",
    "units": 164,
    "projectType": "Family",
    "housingType": "Public"
  },
  {
    "id": 18,
    "image": "/home3.png",
    "project": "Brickell View Terrace",
    "address": "117 SW 10 St, Miami",
    "zipcode": 33130,
    "district": 5,
    "phone": "305-270-0870",
    "units": 100,
    "projectType": "Family",
    "housingType": "Private"
  },
  {
    "id": 19,
    "image": "/home1.jpeg",
    "project": "Brisas del Este Apartments",
    "address": "2926 NW 18th Ave. Miami",
    "zipcode": 33142,
    "district": 3,
    "phone": "786-633-4360",
    "units": 161,
    "projectType": "Family",
    "housingType": "Public"
  },
  {
    "id": 20,
    "image": "/home2.jpeg",
    "project": "Brisas del Este Phase Two",
    "address": "2626 NW 18 Ave. Miami",
    "zipcode": 33142,
    "district": 3,
    "phone": "786-633-4360",
    "units": 120,
    "projectType": "Family",
    "housingType": "Private"
  },
  {
    "id": 21,
    "image": "/home3.png",
    "project": "Brisas Del Mar Apartments",
    "address": "556 West Flagler,Miami",
    "zipcode": 33130,
    "district": 5,
    "phone": "305-377-2020",
    "units": 160,
    "projectType": "Elderly",
    "housingType": "Public"
  },
  {
    "id": 22,
    "image": "/home1.jpeg",
    "project": "Brisas del Rio Apartments",
    "address": "850 NW 13 Ct. Miami",
    "zipcode": 33125,
    "district": 5,
    "phone": "786-697-3400",
    "units": 168,
    "projectType": "Elderly",
    "housingType": "Private"
  },
  {
    "id": 23,
    "image": "/home2.jpeg",
    "project": "Brownsville Transit Village I",
    "address": "5255 NW 29th Ave, Miami",
    "zipcode": 33142,
    "district": 2,
    "phone": "305-633-2350",
    "units": 96,
    "projectType": "Family",
    "housingType": "Public"
  },
  {
    "id": 24,
    "image": "/home3.png",
    "project": "Brownsville Transit Village II",
    "address": "5225 NW 29 Ave, Miami",
    "zipcode": 33142,
    "district": 3,
    "phone": "305-633-2350",
    "units": 100,
    "projectType": "Elderly",
    "housingType": "Private"
  },
  {
    "id": 25,
    "image": "/home1.jpeg",
    "project": "Brownsville Transit Village Ill",
    "address": "5185 NW 29 Ave, Miami",
    "zipcode": 33142,
    "district": 3,
    "phone": "786-502-2036",
    "units": 100,
    "projectType": "Elderly",
    "housingType": "Public"
  },
  {
    "id": 26,
    "image": "/home2.jpeg",
    "project": "Brownsville Transit Village IV",
    "address": "5185 NW 29 Ave, Miami",
    "zipcode": 33142,
    "district": 3,
    "phone": "305-384-7887",
    "units": 102,
    "projectType": "Family",
    "housingType": "Private"
  },
  {
    "id": 27,
    "image": "/home3.png",
    "project": "Calusa Cove Apartments",
    "address": "8000 SW 210 St, Miami",
    "zipcode": 33189,
    "district": 8,
    "phone": "305-969-0594",
    "units": 144,
    "projectType": "Family",
    "housingType": "Public"
  },
  {
    "id": 28,
    "image": "/home1.jpeg",
    "project": "Camacol Tower",
    "address": "1401 W.Flagler St, Miami",
    "zipcode": 33135,
    "district": 5,
    "phone": "305-270-0870",
    "units": 100,
    "projectType": "Elderly",
    "housingType": "Private"
  },
  {
    "id": 29,
    "image": "/home2.jpeg",
    "project": "Cameron Creek Apartments",
    "address": "1720 NW 3rd Terr, Florida City",
    "zipcode": 33034,
    "district": 9,
    "phone": "305-247-3750",
    "units": 148,
    "projectType": "Family",
    "housingType": "Public"
  },
  {
    "id": 30,
    "image": "/home3.png",
    "project": "Camillus House (Sommerville)",
    "address": "1603-1627 NW 7 Ave, Miami",
    "zipcode": 33136,
    "district": 3,
    "phone": "305-374-1065 Ext. 314",
    "units": 40,
    "projectType": "Homeless",
    "housingType": "Private"
  },
  {
    "id": 31,
    "image": "/home1.jpeg",
    "project": "Cannery Row at Redlands Crossing",
    "address": "14380 SW 261 St. Miami,",
    "zipcode": 33032,
    "district": 8,
    "phone": "305-270-0870",
    "units": 112,
    "projectType": "Elderly",
    "housingType": "Public"
  },
  {
    "id": 32,
    "image": "/home2.jpeg",
    "project": "Captiva Club Apartments",
    "address": "17692 SW 107 Ave, Miami",
    "zipcode": 33157,
    "district": 9,
    "phone": "305-253-1360",
    "units": 136,
    "projectType": "Family",
    "housingType": "Private"
  },
  {
    "id": 33,
    "image": "/home3.png",
    "project": "Caribbean Village Apartments",
    "address": "19755 SW 110 Ct. Miami",
    "zipcode": 33157,
    "district": 9,
    "phone": "30.5-275-4555",
    "units": 123,
    "projectType": "Elderly",
    "housingType": "Public"
  },
  {
    "id": 34,
    "image": "/home1.jpeg",
    "project": "Carrie P.Meek Manor",
    "address": "330-336 NW 19 St, Miami",
    "zipcode": 33136,
    "district": 3,
    "phone": "305-573-2917",
    "units": 70,
    "projectType": "Elderly",
    "housingType": "Private"
  },
  {
    "id": 35,
    "image": "/home2.jpeg",
    "project": "Casa Matias f/k/a MCR Apartments I",
    "address": "14340 SW 260 St. Miami,",
    "zipcode": 33032,
    "district": 8,
    "phone": "305-258-5959",
    "units": 80,
    "projectType": "Family",
    "housingType": "Public"
  },
  {
    "id": 36,
    "image": "/home3.png",
    "project": "Center Court  Apartments",
    "address": "14797 NE 18 Ave, Miami",
    "zipcode": 33181,
    "district": 2,
    "phone": "786-222-8532",
    "units": 588,
    "projectType": "Family",
    "housingType": "Private"
  },
  {
    "id": 37,
    "image": "/home1.jpeg",
    "project": "Centerra Townhomes",
    "address": "18096 SW 107th Ave, Miami",
    "zipcode": 33157,
    "district": 9,
    "phone": "786-592-1703",
    "units": 104,
    "projectType": "Family",
    "housingType": "Public"
  },
  {
    "id": 38,
    "image": "/home2.jpeg",
    "project": "Circle Creek Apartments",
    "address": "26000 SW 144 Terr. Miami",
    "zipcode": 33032,
    "district": 8,
    "phone": "305-258-5501",
    "units": 100,
    "projectType": "Family",
    "housingType": "Private"
  },
  {
    "id": 39,
    "image": "/home3.png",
    "project": "City Crossing Apartments",
    "address": "230 SW 12 St, Miami",
    "zipcode": 33130,
    "district": 5,
    "phone": "305-860-8099",
    "units": 103,
    "projectType": "Family",
    "housingType": "Public"
  },
  {
    "id": 40,
    "image": "/home1.jpeg",
    "project": "City Heights Apartments",
    "address": "145 SW 8 St. Miami",
    "zipcode": 33130,
    "district": 5,
    "phone": "305-856-0050",
    "units": 98,
    "projectType": "Family",
    "housingType": "Private"
  },
  {
    "id": 41,
    "image": "/home2.jpeg",
    "project": "City View Apartments",
    "address": "8250 NE 4th Pl Miami #116",
    "zipcode": 33138,
    "district": 5,
    "phone": "305-756-2722",
    "units": 66,
    "projectType": "Homeless",
    "housingType": "Public"
  },
  {
    "id": 42,
    "image": "/home3.png",
    "project": "Coalition Lift",
    "address": "1255 NW 58 St. Miami",
    "zipcode": 33142,
    "district": 3,
    "phone": "305-836-1108 Ext. 3302",
    "units": 34,
    "projectType": "Homeless",
    "housingType": "Private"
  },
  {
    "id": 43,
    "image": "/home1.jpeg",
    "project": "Congress Building Apartments",
    "address": "111 NE 2nd Ave, Miami",
    "zipcode": 33132,
    "district": 5,
    "phone": "305-372-0008",
    "units": 128,
    "projectType": "Elderly",
    "housingType": "Public"
  },
  {
    "id": 44,
    "image": "/home2.jpeg",
    "project": "Coquina Place",
    "address": "21451 SW 113th Ave.",
    "zipcode": 33189,
    "district": 9,
    "phone": "786-429-3423",
    "units": 96,
    "projectType": "Family",
    "housingType": "Private"
  },
  {
    "id": 45,
    "image": "/home3.png",
    "project": "Coral Bay Cove Apartments",
    "address": "25851 S. Dixie Hwy.Naranja",
    "zipcode": 33032,
    "district": 9,
    "phone": "305-258-417 4",
    "units": 224,
    "projectType": "Family",
    "housingType": "Public"
  },
  {
    "id": 46,
    "image": "/home1.jpeg",
    "project": "Coral Place",
    "address": "1001 NW 54 St, Miami",
    "zipcode": 33127,
    "district": 3,
    "phone": "305-759-6350",
    "units": 100,
    "projectType": "Family",
    "housingType": "Private"
  },
  {
    "id": 47,
    "image": "/home2.jpeg",
    "project": "Country Club Villas I Apts.",
    "address": "18231 NW 73rd Ave,Miami",
    "zipcode": 33015,
    "district": 13,
    "phone": "305-821-6747",
    "units": 216,
    "projectType": "Family",
    "housingType": "Public"
  },
  {
    "id": 48,
    "image": "/home3.png",
    "project": "Country Club Villas II Apts.",
    "address": "6855 NW 179th St,Miami",
    "zipcode": 33015,
    "district": 13,
    "phone": "305-827-5758",
    "units": 214,
    "projectType": "Family",
    "housingType": "Private"
  },
  {
    "id": 49,
    "image": "/home1.jpeg",
    "project": "Courtside Family Apartments",
    "address": "1699 NW 4th Ave. Miami",
    "zipcode": 33136,
    "district": 3,
    "phone": "786-773-1331",
    "units": 84,
    "projectType": "Family",
    "housingType": "Public"
  },
  {
    "id": 50,
    "image": "/home2.jpeg",
    "project": "Crespi Park Apartments",
    "address": "7900-7920 Crespi Blvd, Miami Beach",
    "zipcode": 33141,
    "district": 4,
    "phone": "305-535-8002",
    "units": 16,
    "projectType": "Family",
    "housingType": "Private"
  },
  {
    "id": 51,
    "image": "/home3.png",
    "project": "Cutler Glen Apartments",
    "address": "11100 SW 196 St, Miami",
    "zipcode": 33157,
    "district": 9,
    "phone": "305-233-6154",
    "units": 75,
    "projectType": "Family",
    "housingType": "Public"
  },
  {
    "id": 52,
    "image": "/home1.jpeg",
    "project": "Cutler Manor Apartments",
    "address": "10875 SW 216 St, Miami",
    "zipcode": 33189,
    "district": 9,
    "phone": "305-233-4523",
    "units": 220,
    "projectType": "Family",
    "housingType": "Private"
  },
  {
    "id": 53,
    "image": "/home2.jpeg",
    "project": "Cutler Manor II- POAH",
    "address": "11850 SW 216, St. Cutler Bay",
    "zipcode": 33170,
    "district": 9,
    "phone": "754-243-2529",
    "units": 113,
    "projectType": "Family",
    "housingType": "Public"
  },
  {
    "id": 54,
    "image": "/home3.png",
    "project": "Cutler Meadow Apartments",
    "address": "11200 SW 196 St, Miami",
    "zipcode": 33157,
    "district": 9,
    "phone": "305-233-6154",
    "units": 150,
    "projectType": "Family",
    "housingType": "Private"
  },
  {
    "id": 55,
    "image": "/home1.jpeg",
    "project": "Cutler Riverside Apartments",
    "address": "21630 SW 104 Ct, Miami",
    "zipcode": 33190,
    "district": 9,
    "phone": "305-232-7368",
    "units": 200,
    "projectType": "Family",
    "housingType": "Public"
  },
  {
    "id": 56,
    "image": "/home2.jpeg",
    "project": "Cutler Vista Apartments",
    "address": "10469 SW 216 St, Cutler Bay",
    "zipcode": 33190,
    "district": 9,
    "phone": "305-256-9925",
    "units": 216,
    "projectType": "Family",
    "housingType": "Private"
  },
  {
    "id": 57,
    "image": "/home3.png",
    "project": "Dade Heritage Trust",
    "address": "11269 NW 5th St.",
    "zipcode": 33135,
    "district": 13,
    "phone": "305-358-9572",
    "units": 4,
    "projectType": "Family",
    "housingType": "Public"
  },
  {
    "id": 58,
    "image": "/home1.jpeg",
    "project": "Del Prado Gardens",
    "address": "18010 NW 39 Ct, Miami",
    "zipcode": 33055,
    "district": 1,
    "phone": "305-628-8140 Ext. 6005",
    "units": 32,
    "projectType": "Family",
    "housingType": "Private"
  },
  {
    "id": 59,
    "image": "/home2.jpeg",
    "project": "Doral Terrace Apartments",
    "address": "10825 NW 50 St, Miami",
    "zipcode": 33178,
    "district": 12,
    "phone": "305-593-8008",
    "units": 256,
    "projectType": "Family",
    "housingType": "Public"
  },
  {
    "id": 60,
    "image": "/home3.png",
    "project": "Douglas Pointe Apartments",
    "address": "3840 NW 183 St, Miami",
    "zipcode": 33055,
    "district": 1,
    "phone": "305-633-8111",
    "units": 176,
    "projectType": "Family",
    "housingType": "Private"
  },
  {
    "id": 61,
    "image": "/home1.jpeg",
    "project": "Dr. Barbara Carey-Shuler Manor",
    "address": "1400 NW 54 St, Miami",
    "zipcode": 33142,
    "district": 3,
    "phone": "305-836-1108Ext. 3302",
    "units": 90,
    "projectType": "Homeless",
    "housingType": "Public"
  },
  {
    "id": 62,
    "image": "/home2.jpeg",
    "project": "Edificio Pineiro",
    "address": "1176 SW 20 Ave, Miami",
    "zipcode": 33135,
    "district": 5,
    "phone": "786-703-5409",
    "units": 34,
    "projectType": "Elderly",
    "housingType": "Private"
  },
  {
    "id": 63,
    "image": "/home3.png",
    "project": "Edison Gardens Apartments",
    "address": "651 NW 58 St & 5900 NW 6 Ave,Miami",
    "zipcode": 33127,
    "district": 3,
    "phone": "305-759-2752",
    "units": 100,
    "projectType": "Family",
    "housingType": "Public"
  },
  {
    "id": 64,
    "image": "/home1.jpeg",
    "project": "EdisonPlace",
    "address": "651 NW58 St Ste 101, Miami",
    "zipcode": 33127,
    "district": 3,
    "phone": "305-759-2752",
    "units": 100,
    "projectType": "Family",
    "housingType": "Private"
  },
  {
    "id": 65,
    "image": "/home2.jpeg",
    "project": "Edison Terraces",
    "address": "675 NW 56 St. Building C",
    "zipcode": 33127,
    "district": 3,
    "phone": "305-757-6604",
    "units": 120,
    "projectType": "Family",
    "housingType": "Public"
  },
  {
    "id": 66,
    "image": "/home3.png",
    "project": "Edison Towers Apartments",
    "address": "5821 NW 7th Ave, Miami",
    "zipcode": 33127,
    "district": 3,
    "phone": "305-757-6604",
    "units": 121,
    "projectType": "Elderly",
    "housingType": "Private"
  },
  {
    "id": 67,
    "image": "/home1.jpeg",
    "project": "Emmaus Place",
    "address": "342 NW 4th Ave, Miami",
    "zipcode": 33128,
    "district": 5,
    "phone": "305-374-1065 Ext. 425",
    "units": 7,
    "projectType": "Foster Care Facility",
    "housingType": "Public"
  },
  {
    "id": 68,
    "image": "/home2.jpeg",
    "project": "Esmeralda Bay",
    "address": "3780 NW 22nd Ave, Miami",
    "zipcode": 33142,
    "district": 3,
    "phone": "305-638-8186",
    "units": 96,
    "projectType": "Elderly",
    "housingType": "Private"
  },
  {
    "id": 69,
    "image": "/home3.png",
    "project": "Everett Stewart Sr. Village",
    "address": "5255 NW 29th Ave, Miami",
    "zipcode": 33142,
    "district": 3,
    "phone": "305-384-7884",
    "units": 96,
    "projectType": "Family",
    "housingType": "Public"
  },
  {
    "id": 70,
    "image": "/home1.jpeg",
    "project": "Fair Oaks Apartments",
    "address": "29003 S. Dixie Hway, Homestead",
    "zipcode": 33033,
    "district": 8,
    "phone": "305-246-5113",
    "units": 120,
    "projectType": "Family",
    "housingType": "Private"
  },
  {
    "id": 71,
    "image": "/home2.jpeg",
    "project": "Father Marquess Barry Apts.",
    "address": "301 NW 17th St. Miami",
    "zipcode": 33136,
    "district": 3,
    "phone": "786-699-9980",
    "units": 60,
    "projectType": "Elderly",
    "housingType": "Public"
  },
  {
    "id": 72,
    "image": "/home3.png",
    "project": "Fernwood Apartments",
    "address": "935 Pennsylvania Ave, Miami Beach",
    "zipcode": 33139,
    "district": 5,
    "phone": "305-535-8002",
    "units": 18,
    "projectType": "Special Needs",
    "housingType": "Private"
  },
  {
    "id": 73,
    "image": "/home1.jpeg",
    "project": "Florida City Village Phase VII",
    "address": "905 NW 4 Terrace & 926 NW 3 Ln, Florida City",
    "zipcode": 33034,
    "district": 9,
    "phone": "305-242-0481",
    "units": 10,
    "projectType": "Family",
    "housingType": "Public"
  },
  {
    "id": 74,
    "image": "/home2.jpeg",
    "project": "Garden Walk Apartments",
    "address": "21354 SW 112 Ave. Miami",
    "zipcode": 33189,
    "district": 9,
    "phone": "305-232-3430",
    "units": 128,
    "projectType": "Family",
    "housingType": "Private"
  },
  {
    "id": 75,
    "image": "/home3.png",
    "project": "Gibson Plaza",
    "address": "3629 Grand Ave, Miami",
    "zipcode": 33133,
    "district": 7,
    "phone": "305-270-0870",
    "units": 56,
    "projectType": "Family",
    "housingType": "Public"
  },
  {
    "id": 76,
    "image": "/home1.jpeg",
    "project": "Golden Lakes Apartments",
    "address": "1200 NW 155 Lane, Miami",
    "zipcode": 33169,
    "district": 1,
    "phone": "305-685-0170",
    "units": 280,
    "projectType": "Family",
    "housingType": "Private"
  },
  {
    "id": 77,
    "image": "/home2.jpeg",
    "project": "Golfside Villas on the Green",
    "address": "6850 NW 179 St, Miami",
    "zipcode": 33015,
    "district": 13,
    "phone": "305-556-4470",
    "units": 194,
    "projectType": "Family",
    "housingType": "Public"
  },
  {
    "id": 78,
    "image": "/home3.png",
    "project": "Green Vista Apartments",
    "address": "18100 NW 68 Ave, Miami",
    "zipcode": 33015,
    "district": 13,
    "phone": "305-231-8828",
    "units": 94,
    "projectType": "Family",
    "housingType": "Private"
  },
  {
    "id": 79,
    "image": "/home1.jpeg",
    "project": "Hampton Village Apartments",
    "address": "2740 NW 43rd Terr.Miami,",
    "zipcode": 33142,
    "district": 3,
    "phone": "305-371-8300",
    "units": 100,
    "projectType": "Family",
    "housingType": "Public"
  },
  {
    "id": 80,
    "image": "/home2.jpeg",
    "project": "Hardin Hammock Estates",
    "address": "22555 SW 107 Pl, Miami",
    "zipcode": 33170,
    "district": 9,
    "phone": "305-252-9093",
    "units": 200,
    "projectType": "Family",
    "housingType": "Private"
  },
  {
    "id": 81,
    "image": "/home3.png",
    "project": "Harding Village",
    "address": "2020 NE 169 St., Miami Beach",
    "zipcode": 33141,
    "district": 4,
    "phone": "305-864-4365",
    "units": 92,
    "projectType": "Family",
    "housingType": "Public"
  },
  {
    "id": 82,
    "image": "/home1.jpeg",
    "project": "Hibiscus Pointe Apartments",
    "address": "1320 NW79 St, Miami",
    "zipcode": 33147,
    "district": 2,
    "phone": "305-835-9627",
    "units": 212,
    "projectType": "Family",
    "housingType": "Private"
  },
  {
    "id": 83,
    "image": "/home2.jpeg",
    "project": "Hidden Cove/Golden Lakes II",
    "address": "1030 NW 155 Lane, Miami",
    "zipcode": 33169,
    "district": 1,
    "phone": "305-685-4554",
    "units": 144,
    "projectType": "Family",
    "housingType": "Public"
  },
  {
    "id": 84,
    "image": "/home3.png",
    "project": "Hidden Grove Apartments",
    "address": "13815 SW 271 Terr,Miami",
    "zipcode": 33032,
    "district": 9,
    "phone": "305-258-1696",
    "units": 222,
    "projectType": "Family",
    "housingType": "Private"
  },
  {
    "id": 85,
    "image": "/home1.jpeg",
    "project": "Inn Transition South",
    "address": "11900 SW 202 St, Miami",
    "zipcode": 33177,
    "district": 9,
    "phone": "305-234-4900",
    "units": 56,
    "projectType": "Homeless",
    "housingType": "Public"
  },
  {
    "id": 86,
    "image": "/home2.jpeg",
    "project": "Island Living Apartments",
    "address": "1201 NW 3rd. Ave, Miami",
    "zipcode": 33136,
    "district": 3,
    "phone": "305-517-3339",
    "units": 70,
    "projectType": "Family",
    "housingType": "Private"
  },
  {
    "id": 87,
    "image": "/home3.png",
    "project": "Jack Orr Plaza",
    "address": "550 NW 5th Street, Miami",
    "zipcode": 33128,
    "district": 3,
    "phone": "305-374-5754",
    "units": 200,
    "projectType": "Family",
    "housingType": "Public"
  },
  {
    "id": 88,
    "image": "/home1.jpeg",
    "project": "Jefferson Apartments",
    "address": "542 Jefferson Ave, Miami Beach",
    "zipcode": 33139,
    "district": 5,
    "phone": "305-535-8002",
    "units": 27,
    "projectType": "Elderly",
    "housingType": "Private"
  },
  {
    "id": 89,
    "image": "/home2.jpeg",
    "project": "Joe Moretti Phase 28",
    "address": "400 SW 5 St. & 600 SW 4 St. Miami",
    "zipcode": 33130,
    "district": 5,
    "phone": "305-442-8628 Ext. 142",
    "units": 96,
    "projectType": "Elderly",
    "housingType": "Public"
  },
  {
    "id": 90,
    "image": "/home3.png",
    "project": "Joe Moretti Phase I",
    "address": "240 SW 9th Street, Miami",
    "zipcode": 33130,
    "district": 5,
    "phone": "786-502-2822",
    "units": 116,
    "projectType": "Elderly",
    "housingType": "Private"
  },
  {
    "id": 91,
    "image": "/home1.jpeg",
    "project": "Joe Moretti Phase II",
    "address": "240 SW 9 St, Miami",
    "zipcode": 33130,
    "district": 5,
    "phone": "786-502-2822",
    "units": 96,
    "projectType": "Elderly",
    "housingType": "Public"
  },
  {
    "id": 92,
    "image": "/home2.jpeg",
    "project": "John and Anita Ferguson",
    "address": "11003 Pinkston Dr.Miami",
    "zipcode": 33176,
    "district": 9,
    "phone": "786-250-5010",
    "units": 79,
    "projectType": "Elderly/Family",
    "housingType": "Private"
  },
  {
    "id": 93,
    "image": "/home3.png",
    "project": "JPM Centre at Miami Gardens Drive",
    "address": "3931-75 NW 183rd St. Miami",
    "zipcode": 33055,
    "district": 1,
    "phone": "305-625-9630",
    "units": 30,
    "projectType": "Family",
    "housingType": "Public"
  },
  {
    "id": 94,
    "image": "/home1.jpeg",
    "project": "Jubilee Courtyards Apts.",
    "address": "119 South Redland Rd,Florida City",
    "zipcode": 33034,
    "district": 9,
    "phone": "305-248-8004",
    "units": 98,
    "projectType": "Family",
    "housingType": "Private"
  },
  {
    "id": 95,
    "image": "/home2.jpeg",
    "project": "Kanepeli Park",
    "address": "234-246 Jefferson Ave, Miami Beach",
    "zipcode": 33139,
    "district": 21,
    "phone": "305-532-6401 Ext. 3047",
    "units": 21,
    "projectType": "Elderly",
    "housingType": "Public"
  },
  {
    "id": 96,
    "image": "/home3.png",
    "project": "Kensington Gardens Apartments",
    "address": "717 SW 11th Ave, Miami",
    "zipcode": 33130,
    "district": 5,
    "phone": "305-825-0300",
    "units": 26,
    "projectType": "Elderly",
    "housingType": "Private"
  },
  {
    "id": 97,
    "image": "/home1.jpeg",
    "project": "Keys Crossing Apartments",
    "address": "14301-14341 SW 258 Lane,Miami",
    "zipcode": 33032,
    "district": 8,
    "phone": "305-258-2800",
    "units": 100,
    "projectType": "Family",
    "housingType": "Public"
  },
  {
    "id": 98,
    "image": "/home2.jpeg",
    "project": "Kings Terrace",
    "address": "12555 NW 27 Ave, Opa Locka",
    "zipcode": 33167,
    "district": 2,
    "phone": "305-270-0870",
    "units": 300,
    "projectType": "Family",
    "housingType": "Private"
  },
  {
    "id": 99,
    "image": "/home3.png",
    "project": "Knightsbridge Apartments",
    "address": "7133 Bay Drive, Miami Beach",
    "zipcode": 33141,
    "district": 4,
    "phone": "305-535-8002",
    "units": 9,
    "projectType": "Elderly",
    "housingType": "Public"
  },
  {
    "id": 100,
    "image": "/home1.jpeg",
    "project": "La Joya Apartments",
    "address": "26700-26790 SW 142 Avenue, Miami",
    "zipcode": 33032,
    "district": 9,
    "phone": "305-258-0999",
    "units": 150,
    "projectType": "Family",
    "housingType": "Private"
  },
  {
    "id": 101,
    "image": "/home2.jpeg",
    "project": "La Joya Estates",
    "address": "14201-14291 SW 267 St., Naranja,",
    "zipcode": 33032,
    "district": 9,
    "phone": "305-258-9040",
    "units": 106,
    "projectType": "Family",
    "housingType": "Public"
  },
  {
    "id": 102,
    "image": "/home3.png",
    "project": "La Palma Apartments",
    "address": "1040 SW 1st St, Miami",
    "zipcode": 33128,
    "district": 5,
    "phone": "305-324-6634",
    "units": 91,
    "projectType": "Elderly",
    "housingType": "Private"
  },
  {
    "id": 103,
    "image": "/home1.jpeg",
    "project": "Lafayette Plaza",
    "address": "145 NW 78 Street, Miami",
    "zipcode": 33138,
    "district": 3,
    "phone": "305-859-8620",
    "units": 136,
    "projectType": "Family",
    "housingType": "Public"
  },
  {
    "id": 104,
    "image": "/home2.jpeg",
    "project": "Lafayette Square Apartments",
    "address": "150 NE 79 St, Miami",
    "zipcode": 33138,
    "district": 3,
    "phone": "305-759-7649",
    "units": 160,
    "projectType": "Family",
    "housingType": "Private"
  },
  {
    "id": 105,
    "image": "/home3.png",
    "project": "Lake Point Plaza Apartments",
    "address": "1005 & 1025 W 76 St.",
    "zipcode": 33014,
    "district": 13,
    "phone": "305-821-0330",
    "units": 76,
    "projectType": "Elderly",
    "housingType": "Public"
  },
  {
    "id": 106,
    "image": "/home1.jpeg",
    "project": "Lakeview Apartments",
    "address": "11505 NW 22nd Ave, Miami",
    "zipcode": 33147,
    "district": 2,
    "phone": "305-696-4450",
    "units": 40,
    "projectType": "Family",
    "housingType": "Private"
  },
  {
    "id": 107,
    "image": "/home2.jpeg",
    "project": "Las Brisas Trace/Steve Protullis Apts.",
    "address": "5500 NW 27 Ave./2478 NW 55 St. Miami",
    "zipcode": 33142,
    "district": 3,
    "phone": "305-633-8200",
    "units": 119,
    "projectType": "Elderly",
    "housingType": "Public"
  },
  {
    "id": 108,
    "image": "/home3.png",
    "project": "Lejeune Gardens",
    "address": "1190 SE 8th Ave, Hialeah",
    "zipcode": 33010,
    "district": 6,
    "phone": "305-887-8838",
    "units": 18,
    "projectType": "Family",
    "housingType": "Private"
  },
  {
    "id": 109,
    "image": "/home1.jpeg",
    "project": "Leonard Turkel Apts.",
    "address": "234 Jefferson Ave, Miami Beach",
    "zipcode": 33139,
    "district": 5,
    "phone": "305-532-6401",
    "units": 21,
    "projectType": "Elderly",
    "housingType": "Public"
  },
  {
    "id": 110,
    "image": "/home2.jpeg",
    "project": "Liberty Square Phase One",
    "address": "1410 NW 67 St; 1480 NW 67 St; 6512 NW 14 Ave;\n6595 NW 15 Ave. Miami",
    "zipcode": 33147,
    "district": 3,
    "phone": "305-442-8628",
    "units": 204,
    "projectType": "Family",
    "housingType": "Private"
  },
  {
    "id": 111,
    "image": "/home3.png",
    "project": "Liberty Square Phase Two",
    "address": "1301 NW 65 St.; 1310-1380 NW 67 St.; 1391 NW 65\nSt.; 6597 NW 14 Ave.; 6514 NW 13 Ave.",
    "zipcode": 33147,
    "district": 3,
    "phone": "305-442-8628",
    "units": 204,
    "projectType": "Family",
    "housingType": "Public"
  },
  {
    "id": 112,
    "image": "/home1.jpeg",
    "project": "Liberty Square Phase Three",
    "address": "1201  NW 65 St. Miami",
    "zipcode": 33147,
    "district": 3,
    "phone": "305-539-0980",
    "units": 192,
    "projectType": "Family",
    "housingType": "Private"
  },
  {
    "id": 113,
    "image": "/home2.jpeg",
    "project": "Lil Abner Apartments",
    "address": "455 NW 114 Ave, Miami",
    "zipcode": 33172,
    "district": 12,
    "phone": "305-374-1515",
    "units": 87,
    "projectType": "Elderly",
    "housingType": "Public"
  },
  {
    "id": 114,
    "image": "/home3.png",
    "project": "Lincoln Gardens Phase One",
    "address": "2455 NW 46 Street,Miami",
    "zipcode": 33142,
    "district": 3,
    "phone": "786-453-5445",
    "units": 134,
    "projectType": "Family",
    "housingType": "Private"
  },
  {
    "id": 115,
    "image": "/home1.jpeg",
    "project": "Little Haili Gateway",
    "address": "207 NE 62 St, Miami",
    "zipcode": 33138,
    "district": 3,
    "phone": "305-757-4383",
    "units": 80,
    "projectType": "Homeless",
    "housingType": "Public"
  },
  {
    "id": 116,
    "image": "/home2.jpeg",
    "project": "Little River Duplex",
    "address": "180 NW 84 St, Miami",
    "zipcode": 33150,
    "district": 2,
    "phone": "305-772-3992",
    "units": 2,
    "projectType": "Family",
    "housingType": "Private"
  },
  {
    "id": 117,
    "image": "/home3.png",
    "project": "Los Suenos",
    "address": "500 NW 36 St, Miami",
    "zipcode": 33127,
    "district": 3,
    "phone": "305-270-0870",
    "units": 179,
    "projectType": "Family",
    "housingType": "Public"
  },
  {
    "id": 118,
    "image": "/home1.jpeg",
    "project": "Lucida Apartments",
    "address": "15800 NW 77th Court, Miami",
    "zipcode": 33016,
    "district": 13,
    "phone": "833-769-1881",
    "units": 108,
    "projectType": "Family",
    "housingType": "Private"
  },
  {
    "id": 119,
    "image": "/home2.jpeg",
    "project": "M & M Maison II",
    "address": "1621 NW 60th St, Miami",
    "zipcode": 33142,
    "district": 3,
    "phone": "786-409-7478",
    "units": 21,
    "projectType": "Family",
    "housingType": "Public"
  },
  {
    "id": 120,
    "image": "/home3.png",
    "project": "Madison Apartments",
    "address": "259 Washington Ave, Miami Beach",
    "zipcode": 33139,
    "district": 5,
    "phone": "305-535-8002",
    "units": 17,
    "projectType": "Elderly",
    "housingType": "Private"
  },
  {
    "id": 121,
    "image": "/home1.jpeg",
    "project": "Madison View",
    "address": "642 NW 5 Ave, Miami Suite B 105",
    "zipcode": 33136,
    "district": 3,
    "phone": "305- 329-3734",
    "units": 120,
    "projectType": "Family",
    "housingType": "Public"
  },
  {
    "id": 122,
    "image": "/home2.jpeg",
    "project": "Magnolia Landing",
    "address": "25881 SW 143rd Ct, Naranja",
    "zipcode": 33032,
    "district": 8,
    "phone": "305-258-0085",
    "units": 150,
    "projectType": "Family",
    "housingType": "Private"
  },
  {
    "id": 123,
    "image": "/home3.png",
    "project": "Magnolia North 2145 Apts.",
    "address": "2060-2070 Lincoln Ave, Opa Locka",
    "zipcode": 33054,
    "district": 1,
    "phone": "305-477-9545",
    "units": 12,
    "projectType": "Family",
    "housingType": "Public"
  },
  {
    "id": 124,
    "image": "/home1.jpeg",
    "project": "Magnolia North Apartments",
    "address": "15037 Duval Ave, Opa Locka",
    "zipcode": 33054,
    "district": 1,
    "phone": "305-477- 9545",
    "units": 30,
    "projectType": "Family",
    "housingType": "Private"
  },
  {
    "id": 125,
    "image": "/home2.jpeg",
    "project": "Mainland Apartments 2191",
    "address": "2191 NE 168 St, North Miami Beach",
    "zipcode": 33162,
    "district": 4,
    "phone": "305-957-0007",
    "units": 24,
    "projectType": "Family",
    "housingType": "Public"
  },
  {
    "id": 126,
    "image": "/home3.png",
    "project": "Malibu Gardens Apartments",
    "address": "13800 SW 268 St, Miami",
    "zipcode": 33032,
    "district": 9,
    "phone": "305-258-2937",
    "units": 259,
    "projectType": "Family",
    "housingType": "Private"
  },
  {
    "id": 127,
    "image": "/home1.jpeg",
    "project": "Marbrisa Apartments",
    "address": "5200 NW 158th Terr,Miami",
    "zipcode": 33014,
    "district": 1,
    "phone": "305-627-8100",
    "units": 368,
    "projectType": "Family",
    "housingType": "Public"
  },
  {
    "id": 128,
    "image": "/home2.jpeg",
    "project": "Marcia Gardens",
    "address": "10301 SW 127 Ave, Miami",
    "zipcode": 33186,
    "district": 7,
    "phone": "305-396-2648",
    "units": 134,
    "projectType": "Elderly",
    "housingType": "Private"
  },
  {
    "id": 129,
    "image": "/home3.png",
    "project": "Marilyn Hope Apts.",
    "address": "11150 SW211 St, Miami",
    "zipcode": 33189,
    "district": 9,
    "phone": "305-374-1515",
    "units": 108,
    "projectType": "Elderly",
    "housingType": "Public"
  },
  {
    "id": 130,
    "image": "/home1.jpeg",
    "project": "Martin Fine Villas",
    "address": "780 NW 13 Ct, Miami",
    "zipcode": 33125,
    "district": 5,
    "phone": "305-442-8628",
    "units": 104,
    "projectType": "Elderly",
    "housingType": "Private"
  },
  {
    "id": 131,
    "image": "/home2.jpeg",
    "project": "Max's Landing aka Paradise Lakes",
    "address": "8905 SW 169th Ct,Miami",
    "zipcode": 33196,
    "district": 11,
    "phone": "786-785-5520",
    "units": 76,
    "projectType": "Family",
    "housingType": "Public"
  },
  {
    "id": 132,
    "image": "/home3.png",
    "project": "Mayfair Residence Community",
    "address": "1960 Park Ave,Miami Beach",
    "zipcode": 33139,
    "district": 5,
    "phone": "305-531-5341Ext. 118",
    "units": 42,
    "projectType": "Homeless",
    "housingType": "Private"
  },
  {
    "id": 133,
    "image": "/home1.jpeg",
    "project": "Merritt Place Estates",
    "address": "701 SW 12 St, Florida City",
    "zipcode": 33034,
    "district": 9,
    "phone": "305-248-5551",
    "units": 159,
    "projectType": "Family",
    "housingType": "Public"
  },
  {
    "id": 134,
    "image": "/home2.jpeg",
    "project": "Metro South Senior Apartments",
    "address": "6101 Sunset Drive, Miami",
    "zipcode": 33143,
    "district": 7,
    "phone": "305-359-3080",
    "units": 91,
    "projectType": "Elderly",
    "housingType": "Private"
  },
  {
    "id": 135,
    "image": "/home3.png",
    "project": "Miami River Park Apartments",
    "address": "445 NW 4th St. Suite 105,Miami",
    "zipcode": 33128,
    "district": 5,
    "phone": "305-358-2227",
    "units": 211,
    "projectType": "Family",
    "housingType": "Public"
  },
  {
    "id": 136,
    "image": "/home1.jpeg",
    "project": "Miami Stadium Apartments",
    "address": "2625 NW 10 Ave, Miami",
    "zipcode": 33127,
    "district": 3,
    "phone": "305-637-1290",
    "units": 336,
    "projectType": "Family",
    "housingType": "Private"
  },
  {
    "id": 137,
    "image": "/home2.jpeg",
    "project": "Miami Sunset Bay Apartments",
    "address": "10000 SW 224 St, Miami",
    "zipcode": 33190,
    "district": 8,
    "phone": "305-251-8535",
    "units": 308,
    "projectType": "Family",
    "housingType": "Public"
  },
  {
    "id": 138,
    "image": "/home3.png",
    "project": "Mirabella Apartments",
    "address": "12801 SW 252 St, Princeton",
    "zipcode": 33032,
    "district": 8,
    "phone": "305-257-2002",
    "units": 204,
    "projectType": "Family",
    "housingType": "Private"
  },
  {
    "id": 139,
    "image": "/home1.jpeg",
    "project": "Monterey Pointe Apartments",
    "address": "1400 East Mowry Drive, Homestead",
    "zipcode": 33030,
    "district": 8,
    "phone": "305-242-5449",
    "units": 336,
    "projectType": "Family",
    "housingType": "Public"
  },
  {
    "id": 140,
    "image": "/home2.jpeg",
    "project": "Mother Seton Village",
    "address": "12320 SW 283 St, Miami",
    "zipcode": 33034,
    "district": 9,
    "phone": "305-374-1065 Ext. 425",
    "units": 51,
    "projectType": "Homeless",
    "housingType": "Private"
  },
  {
    "id": 141,
    "image": "/home3.png",
    "project": "Naranja Villas Apartments",
    "address": "14015 SW 263 Lane, Miami",
    "zipcode": 33032,
    "district": 9,
    "phone": "305-258-0999",
    "units": 90,
    "projectType": "Family",
    "housingType": "Public"
  },
  {
    "id": 142,
    "image": "/home1.jpeg",
    "project": "New Arena Square Apartments",
    "address": "1023 NW 3rd Ave., Miami",
    "zipcode": 33136,
    "district": 3,
    "phone": "305-372-1383",
    "units": 419,
    "projectType": "Family",
    "housingType": "Private"
  },
  {
    "id": 143,
    "image": "/home2.jpeg",
    "project": "New Life Family Center",
    "address": "3620 NW 1 st Ave, Miami",
    "zipcode": 33127,
    "district": 3,
    "phone": "305-573-3333 X 319",
    "units": 15,
    "projectType": "Homeless",
    "housingType": "Public"
  },
  {
    "id": 144,
    "image": "/home3.png",
    "project": "North Shore Apartments",
    "address": "2102-2118 NE 167 St, Miami",
    "zipcode": 33162,
    "district": 4,
    "phone": "305-957-0007",
    "units": 64,
    "projectType": "Family",
    "housingType": "Private"
  },
  {
    "id": 145,
    "image": "/home1.jpeg",
    "project": "Northside Transit Village I",
    "address": "3101 NW?? St.,Miami",
    "zipcode": 33147,
    "district": 2,
    "phone": "305-691-1210",
    "units": 100,
    "projectType": "Family",
    "housingType": "Public"
  },
  {
    "id": 146,
    "image": "/home2.jpeg",
    "project": "Northside Transit Village II",
    "address": "3181 NW 77th St. Miami",
    "zipcode": 33147,
    "district": 2,
    "phone": "305-691-1210",
    "units": 180,
    "projectType": "Elderly",
    "housingType": "Private"
  },
  {
    "id": 147,
    "image": "/home3.png",
    "project": "Northside Transit Village IV",
    "address": "3160 NW 79 St. Miami",
    "zipcode": 33147,
    "district": 2,
    "phone": "305-691-1210",
    "units": 120,
    "projectType": "Elderly",
    "housingType": "Public"
  },
  {
    "id": 148,
    "image": "/home1.jpeg",
    "project": "Notre Dame",
    "address": "5725 NW 2nd Ave, Miami",
    "zipcode": 33127,
    "district": 3,
    "phone": "305-756-0611",
    "units": 64,
    "projectType": "Family",
    "housingType": "Private"
  },
  {
    "id": 149,
    "image": "/home2.jpeg",
    "project": "Old Cutler Village Apts.",
    "address": "10415 SW 22 St,Miami",
    "zipcode": 33190,
    "district": 9,
    "phone": "305-270-0870",
    "units": 288,
    "projectType": "Family",
    "housingType": "Public"
  },
  {
    "id": 150,
    "image": "/home3.png",
    "project": "Opa Lakes Apartments",
    "address": "2491 NW 135 St, Opa Locka",
    "zipcode": 33054,
    "district": 1,
    "phone": "305-928-1077",
    "units": 48,
    "projectType": "Family",
    "housingType": "Private"
  },
  {
    "id": 151,
    "image": "/home1.jpeg",
    "project": "Orchid Estates",
    "address": "14770 SW 264 St. Naranja",
    "zipcode": 33032,
    "district": 8,
    "phone": "786-60,1-2374",
    "units": 74,
    "projectType": "Elderly",
    "housingType": "Public"
  },
  {
    "id": 152,
    "image": "/home2.jpeg",
    "project": "Palermo Lake Apts",
    "address": "5311 NW 7 St, Miami",
    "zipcode": 33128,
    "district": 6,
    "phone": "305-443-7600",
    "units": 110,
    "projectType": "Elderly",
    "housingType": "Private"
  },
  {
    "id": 153,
    "image": "/home3.png",
    "project": "Palm Villas",
    "address": "50 SW 6th Ave, Florida City",
    "zipcode": 33034,
    "district": 9,
    "phone": "305-242-0481",
    "units": 91,
    "projectType": "Family",
    "housingType": "Public"
  },
  {
    "id": 154,
    "image": "/home1.jpeg",
    "project": "Park City Apartments",
    "address": "845 NW 155 Lane,Miami",
    "zipcode": 33169,
    "district": 1,
    "phone": "305-687-3326",
    "units": 180,
    "projectType": "Family",
    "housingType": "Private"
  },
  {
    "id": 155,
    "image": "/home2.jpeg",
    "project": "Park Place Apartments",
    "address": "250 E.2nd Ave,Hialeah",
    "zipcode": 33010,
    "district": 6,
    "phone": "305-887-8838",
    "units": 34,
    "projectType": "Special Needs",
    "housingType": "Public"
  },
  {
    "id": 156,
    "image": "/home3.png",
    "project": "Park Towers",
    "address": "390 NW 2nd Ave, Miami",
    "zipcode": 33128,
    "district": 5,
    "phone": "305-373-3057",
    "units": 143,
    "projectType": "Elderly",
    "housingType": "Private"
  },
  {
    "id": 157,
    "image": "/home1.jpeg",
    "project": "Parkview Gardens Apartments",
    "address": "1437 NW 61 St,Miami",
    "zipcode": 33142,
    "district": 3,
    "phone": "305-691-4952",
    "units": 60,
    "projectType": "Family",
    "housingType": "Public"
  },
  {
    "id": 158,
    "image": "/home2.jpeg",
    "project": "Pelican Cove Apartments",
    "address": "2460 NW 185th Terrace,Miami",
    "zipcode": 33056,
    "district": 1,
    "phone": "305-816-6092",
    "units": 112,
    "projectType": "Family",
    "housingType": "Private"
  },
  {
    "id": 159,
    "image": "/home3.png",
    "project": "Pinnacle at Tropical Pointe",
    "address": "25155 SW 136 Ave.Miami",
    "zipcode": 33032,
    "district": 8,
    "phone": "305-270-0870",
    "units": 215,
    "projectType": "Family",
    "housingType": "Public"
  },
  {
    "id": 160,
    "image": "/home1.jpeg",
    "project": "Pinnacle Lakes Apartments",
    "address": "18701 NE 3 Ct, Miami",
    "zipcode": 33179,
    "district": 1,
    "phone": "305-270-0870",
    "units": 226,
    "projectType": "Family",
    "housingType": "Private"
  },
  {
    "id": 161,
    "image": "/home2.jpeg",
    "project": "Pinnacle Park",
    "address": "7901 NW 7th Ave, Miami",
    "zipcode": 33150,
    "district": 2,
    "phone": "305-270-0870",
    "units": 135,
    "projectType": "Family",
    "housingType": "Public"
  },
  {
    "id": 162,
    "image": "/home3.png",
    "project": "Pinnacle Place",
    "address": "5600 NE 4 Ave, Miami",
    "zipcode": 33137,
    "district": 3,
    "phone": "305-270-0870",
    "units": 137,
    "projectType": "Family",
    "housingType": "Private"
  },
  {
    "id": 163,
    "image": "/home1.jpeg",
    "project": "Pinnacle Plaza",
    "address": "3650-3690 NW 36 St, Miami",
    "zipcode": 33142,
    "district": 2,
    "phone": "305-270-0870",
    "units": 132,
    "projectType": "Family",
    "housingType": "Public"
  },
  {
    "id": 164,
    "image": "/home2.jpeg",
    "project": "Pinnacle Square",
    "address": "8300 NE 1st Pl, Miami",
    "zipcode": 33138,
    "district": 3,
    "phone": "305-270-8070",
    "units": 110,
    "projectType": "Family",
    "housingType": "Private"
  },
  {
    "id": 165,
    "image": "/home3.png",
    "project": "Pinnacle View/ Wynwood",
    "address": "225 NE 23 St, Miami",
    "zipcode": 33137,
    "district": 3,
    "phone": "786-420-3735",
    "units": 186,
    "projectType": "Family",
    "housingType": "Public"
  },
  {
    "id": 166,
    "image": "/home1.jpeg",
    "project": "Platform 3750",
    "address": "3750 South Dixie Hwy, Miami",
    "zipcode": 33133,
    "district": 7,
    "phone": "786-618-9520",
    "units": 191,
    "projectType": "Family",
    "housingType": "Private"
  },
  {
    "id": 167,
    "image": "/home2.jpeg",
    "project": "Poinciana Grove",
    "address": "5601 NW 2 Ave, Miami",
    "zipcode": 33127,
    "district": 3,
    "phone": "305-873-6006",
    "units": 80,
    "projectType": "Family",
    "housingType": "Public"
  },
  {
    "id": 168,
    "image": "/home3.png",
    "project": "Postmaster Apartments",
    "address": "8800 SW 8 St, Miami",
    "zipcode": 33174,
    "district": 10,
    "phone": "305-270-0870",
    "units": 55,
    "projectType": "Elderly",
    "housingType": "Private"
  },
  {
    "id": 169,
    "image": "/home1.jpeg",
    "project": "Princeton Manor Apartments",
    "address": "33690 SW 187th Ave.,Florida City",
    "zipcode": 33034,
    "district": 9,
    "phone": "305-248-9900",
    "units": 91,
    "projectType": "Elderly",
    "housingType": "Public"
  },
  {
    "id": 170,
    "image": "/home2.jpeg",
    "project": "Rayos Del Sol Apartments",
    "address": "185 NW 13 Ave, Miami",
    "zipcode": 33125,
    "district": 5,
    "phone": "305-270-0870",
    "units": 199,
    "projectType": "Family",
    "housingType": "Private"
  },
  {
    "id": 171,
    "image": "/home3.png",
    "project": "Redland Arms Apartments",
    "address": "950 N. Davis Parkway, Florida City",
    "zipcode": 33034,
    "district": 9,
    "phone": "786-349-5460",
    "units": 66,
    "projectType": "Family",
    "housingType": "Public"
  },
  {
    "id": 172,
    "image": "/home1.jpeg",
    "project": "Regatta Place",
    "address": "3180 NW 42nd Ave, Miami",
    "zipcode": 33142,
    "district": 3,
    "phone": "786-251-0378",
    "units": 108,
    "projectType": "Family",
    "housingType": "Private"
  },
  {
    "id": 173,
    "image": "/home2.jpeg",
    "project": "Regency Pointe Apartments",
    "address": "1901 NW 79th St, Miami",
    "zipcode": 33147,
    "district": 2,
    "phone": "786-542-9924",
    "units": 104,
    "projectType": "Family",
    "housingType": "Public"
  },
  {
    "id": 174,
    "image": "/home3.png",
    "project": "Renaissance at Sugar Hill",
    "address": "1425 NW 71 Street, Miami",
    "zipcode": 33147,
    "district": 2,
    "phone": "786-409-7478",
    "units": 132,
    "projectType": "Family",
    "housingType": "Private"
  },
  {
    "id": 175,
    "image": "/home1.jpeg",
    "project": "Residence at Dr.Martin Luther King",
    "address": "1501 NW 62nd St, Miami",
    "zipcode": 33147,
    "district": 2,
    "phone": "305-203-4044",
    "units": 120,
    "projectType": "Family",
    "housingType": "Public"
  },
  {
    "id": 176,
    "image": "/home2.jpeg",
    "project": "Residences at SoMi Pare",
    "address": "5961 SW 68th Street, Miami",
    "zipcode": 33143,
    "district": 7,
    "phone": "305-442-8628 X 137",
    "units": 172,
    "projectType": "Family",
    "housingType": "Private"
  },
  {
    "id": 177,
    "image": "/home3.png",
    "project": "Richmond Pines",
    "address": "14700 Booker T. Washington Blvd. Miami",
    "zipcode": 33176,
    "district": 9,
    "phone": "305-234-6104",
    "units": 80,
    "projectType": "Family",
    "housingType": "Public"
  },
  {
    "id": 178,
    "image": "/home1.jpeg",
    "project": "Rio Towers",
    "address": "905 SW 1 St, Miami",
    "zipcode": 33130,
    "district": 5,
    "phone": "305-856-2547Ext.109",
    "units": 82,
    "projectType": "Elderly",
    "housingType": "Private"
  },
  {
    "id": 179,
    "image": "/home2.jpeg",
    "project": "River Oaks Apartments",
    "address": "501 NW 5 Ave,Florida City",
    "zipcode": 33034,
    "district": 8,
    "phone": "305-247-4663",
    "units": 160,
    "projectType": "Family",
    "housingType": "Public"
  },
  {
    "id": 180,
    "image": "/home3.png",
    "project": "Robert King High",
    "address": "1403-1405 NW 7th Street,Miami",
    "zipcode": 33131,
    "district": 5,
    "phone": "786-717-9976",
    "units": 315,
    "projectType": "Elderly",
    "housingType": "Private"
  },
  {
    "id": 181,
    "image": "/home1.jpeg",
    "project": "Royal Palm Apartments",
    "address": "2300 NW 136 St, Miami",
    "zipcode": 33054,
    "district": 2,
    "phone": "305-769-1544",
    "units": 120,
    "projectType": "Elderly",
    "housingType": "Public"
  },
  {
    "id": 182,
    "image": "/home2.jpeg",
    "project": "Royal Palm Gardens",
    "address": "1110 E Mowry Drive, Homestead",
    "zipcode": 33034,
    "district": 8,
    "phone": "305-248-3433",
    "units": 145,
    "projectType": "Family",
    "housingType": "Private"
  },
  {
    "id": 183,
    "image": "/home3.png",
    "project": "Royalton",
    "address": "131 SE 1 St, Miami",
    "zipcode": 33131,
    "district": 5,
    "phone": "305-371-9446 Ext.2307",
    "units": 100,
    "projectType": "Homeless",
    "housingType": "Public"
  },
  {
    "id": 184,
    "image": "/home1.jpeg",
    "project": "Running Brook Apartments",
    "address": "20505 SW 122 Ave,Miami",
    "zipcode": 33177,
    "district": 9,
    "phone": "786-242-4644",
    "units": 186,
    "projectType": "Family",
    "housingType": "Private"
  },
  {
    "id": 185,
    "image": "/home2.jpeg",
    "project": "Russ Allen Apartments",
    "address": "1550 W 44th Place,Hialeah",
    "zipcode": 33012,
    "district": 13,
    "phone": "305-442-8628 Ext. 137",
    "units": 74,
    "projectType": "Family",
    "housingType": "Public"
  },
  {
    "id": 186,
    "image": "/home3.png",
    "project": "Santa Clara Apartments I",
    "address": "2000 NW 12th Ave, Miami",
    "zipcode": 33142,
    "district": 3,
    "phone": "305-548-3811",
    "units": 208,
    "projectType": "Family",
    "housingType": "Private"
  },
  {
    "id": 187,
    "image": "/home1.jpeg",
    "project": "Santa Clara Apartments II",
    "address": "1250 NW 21st St,Miami",
    "zipcode": 33142,
    "district": 3,
    "phone": "305-545-6873",
    "units": 204,
    "projectType": "Family",
    "housingType": "Public"
  },
  {
    "id": 188,
    "image": "/home2.jpeg",
    "project": "SCLAD - Lejeune Gardens",
    "address": "1190 SE 8th Street,Hialeah",
    "zipcode": 33010,
    "district": 6,
    "phone": "305-887-8838",
    "units": 18,
    "projectType": "Special Needs",
    "housingType": "Private"
  },
  {
    "id": 189,
    "image": "/home3.png",
    "project": "SCLAD Plaza",
    "address": "201 E 2nd St,Hialeah",
    "zipcode": 33010,
    "district": 6,
    "phone": "305-887-8838",
    "units": 18,
    "projectType": "Special Needs",
    "housingType": "Public"
  },
  {
    "id": 190,
    "image": "/home1.jpeg",
    "project": "Senator Villas",
    "address": "8915 SW 40th St. Miami",
    "zipcode": 33165,
    "district": 10,
    "phone": "786-652-1355",
    "units": 23,
    "projectType": "Elderly",
    "housingType": "Private"
  },
  {
    "id": 191,
    "image": "/home2.jpeg",
    "project": "Shepherd House",
    "address": "1210 NW 12 St, Homestead",
    "zipcode": 33030,
    "district": 8,
    "phone": "786-226-9266 Ext.3705",
    "units": 6,
    "projectType": "Homeless",
    "housingType": "Public"
  },
  {
    "id": 192,
    "image": "/home3.png",
    "project": "Siesta Pointe Apartments",
    "address": "5800 NW 186 St, Miami",
    "zipcode": 33015,
    "district": 1,
    "phone": "305-622-9007",
    "units": 392,
    "projectType": "Family",
    "housingType": "Private"
  },
  {
    "id": 193,
    "image": "/home1.jpeg",
    "project": "Silver Creek",
    "address": "11855 SW 216 St, Miami",
    "zipcode": 33135,
    "district": 9,
    "phone": "305-203-4548",
    "units": 90,
    "projectType": "Family",
    "housingType": "Public"
  },
  {
    "id": 194,
    "image": "/home2.jpeg",
    "project": "Smather Plaza Phase II",
    "address": "1025 SW 30th Ave, Miami",
    "zipcode": 33135,
    "district": 7,
    "phone": "786-536-6891",
    "units": 133,
    "projectType": "Family",
    "housingType": "Private"
  },
  {
    "id": 195,
    "image": "/home3.png",
    "project": "Smathers Preservation Phase One",
    "address": "935 SW 30th Ave. & 2970 SW 9 St. Miami",
    "zipcode": 33135,
    "district": 7,
    "phone": "786-536-6891",
    "units": 182,
    "projectType": "Elderly",
    "housingType": "Public"
  },
  {
    "id": 196,
    "image": "/home1.jpeg",
    "project": "Solabella",
    "address": "13787 NW 7th Ave, Miami",
    "zipcode": 33169,
    "district": 1,
    "phone": "786-657-2074",
    "units": 92,
    "projectType": "Family",
    "housingType": "Private"
  },
  {
    "id": 197,
    "image": "/home2.jpeg",
    "project": "Solid Oaks Apartments",
    "address": "14752 NE 6th Ave, Miami",
    "zipcode": 33161,
    "district": 12,
    "phone": "516-658-8817",
    "units": 180,
    "projectType": "Family",
    "housingType": "Public"
  },
  {
    "id": 198,
    "image": "/home3.png",
    "project": "Solimar Apts.",
    "address": "825 NW 5th Ave, Miami",
    "zipcode": 33034,
    "district": 9,
    "phone": "786-255-7250",
    "units": 97,
    "projectType": "Family",
    "housingType": "Private"
  },
  {
    "id": 199,
    "image": "/home1.jpeg",
    "project": "Somerville Residences Rehabilitatioon",
    "address": "400 NW 3rd. Court, Miami",
    "zipcode": 33128,
    "district": 3,
    "phone": "305-374-1065",
    "units": 12,
    "projectType": "Homeless",
    "housingType": "Public"
  },
  {
    "id": 200,
    "image": "/home2.jpeg",
    "project": "South Wind Apartments",
    "address": "149 E 3rd St, Hialeah",
    "zipcode": 33010,
    "district": 6,
    "phone": "305-269-0600",
    "units": 68,
    "projectType": "Family",
    "housingType": "Private"
  },
  {
    "id": 201,
    "image": "/home3.png",
    "project": "Southpoint Crossing Apartments",
    "address": "897 W Lucy St, Florida City",
    "zipcode": 33034,
    "district": 9,
    "phone": "305-245-2100",
    "units": 123,
    "projectType": "Family",
    "housingType": "Public"
  },
  {
    "id": 202,
    "image": "/home1.jpeg",
    "project": "Spinnaker Cove",
    "address": "18900 NW 57 Ave, Miami",
    "zipcode": 33015,
    "district": 1,
    "phone": "305-626-0077",
    "units": 220,
    "projectType": "Family",
    "housingType": "Private"
  },
  {
    "id": 203,
    "image": "/home2.jpeg",
    "project": "St. John Apartments Rehab",
    "address": "220-250 NW 13 St & 1300 NW  2 Ave, Miami",
    "zipcode": 33136,
    "district": 3,
    "phone": "305-653-7458",
    "units": 35,
    "projectType": "Family",
    "housingType": "Public"
  },
  {
    "id": 204,
    "image": "/home3.png",
    "project": "St. John Bahamas Villas Apts.",
    "address": "143 NW 77th St. Miami",
    "zipcode": 33150,
    "district": 3,
    "phone": "305-372-0682",
    "units": 9,
    "projectType": "Family",
    "housingType": "Private"
  },
  {
    "id": 205,
    "image": "/home1.jpeg",
    "project": "St. John Island Apartments",
    "address": "1613-37 NW 1st Place, Miami",
    "zipcode": 33136,
    "district": 3,
    "phone": "305-372-0682",
    "units": 48,
    "projectType": "Family",
    "housingType": "Public"
  },
  {
    "id": 206,
    "image": "/home2.jpeg",
    "project": "St. John Plaza Apartments",
    "address": "1301 NW 3rd Ave. Miami",
    "zipcode": 33136,
    "district": 3,
    "phone": "305-653-7458",
    "units": 90,
    "projectType": "Family",
    "housingType": "Private"
  },
  {
    "id": 207,
    "image": "/home3.png",
    "project": "St. John Village Apts.II",
    "address": "1445 NW 1 PL,Miami",
    "zipcode": 33136,
    "district": 3,
    "phone": "305-653-7458",
    "units": 10,
    "projectType": "Family",
    "housingType": "Public"
  },
  {
    "id": 208,
    "image": "/home1.jpeg",
    "project": "Stadium Tower Apartments",
    "address": "2320 NW 8th Ave.Miami",
    "zipcode": 33127,
    "district": 3,
    "phone": "305-637-1290",
    "units": 149,
    "projectType": "Family",
    "housingType": "Private"
  },
  {
    "id": 209,
    "image": "/home2.jpeg",
    "project": "Steven E. Chaykin Apartments",
    "address": "321-327 Michigan Ave & 927 3rd St, Miami Beach",
    "zipcode": 33139,
    "district": 5,
    "phone": "305-532-6401",
    "units": 30,
    "projectType": "Elderly",
    "housingType": "Public"
  },
  {
    "id": 210,
    "image": "/home3.png",
    "project": "Stirrup Plaza Phase I",
    "address": "3150 Mundy St, Miami",
    "zipcode": 33133,
    "district": 7,
    "phone": "786-452-0302",
    "units": 100,
    "projectType": "Family",
    "housingType": "Private"
  },
  {
    "id": 211,
    "image": "/home1.jpeg",
    "project": "Stirrup Plaza Phase II",
    "address": "3150 Mundy St, Miami",
    "zipcode": 33133,
    "district": 7,
    "phone": "786-452-0302",
    "units": 68,
    "projectType": "Elderly",
    "housingType": "Public"
  },
  {
    "id": 212,
    "image": "/home2.jpeg",
    "project": "Sunrise Commons Apartments",
    "address": "26600 SW 146th Ct, Miami",
    "zipcode": 33032,
    "district": 8,
    "phone": "305-258-9102",
    "units": 106,
    "projectType": "Family",
    "housingType": "Private"
  },
  {
    "id": 213,
    "image": "/home3.png",
    "project": "Sunset Bay Apartments",
    "address": "10000 SW 224 St.",
    "zipcode": 33190,
    "district": 8,
    "phone": "305-251-8535",
    "units": "",
    "projectType": "Family",
    "housingType": "Public"
  },
  {
    "id": 214,
    "image": "/home1.jpeg",
    "project": "Sunset Pointe Apartments",
    "address": "1170 NW 79 St. Miami",
    "zipcode": 33150,
    "district": 3,
    "phone": "305-456-8387",
    "units": 136,
    "projectType": "Family",
    "housingType": "Private"
  },
  {
    "id": 215,
    "image": "/home2.jpeg",
    "project": "Sunset Pointe II Apartments",
    "address": "1156 NW 79th St., Miami",
    "zipcode": 33150,
    "district": 3,
    "phone": "305-456-8337",
    "units": 96,
    "projectType": "Family",
    "housingType": "Public"
  },
  {
    "id": 216,
    "image": "/home3.png",
    "project": "Superior Manor Apartments",
    "address": "5255 NW 24 Ave. Miami",
    "zipcode": 33142,
    "district": 3,
    "phone": "786-558-9028",
    "units": 139,
    "projectType": "Elderly",
    "housingType": "Private"
  },
  {
    "id": 217,
    "image": "/home1.jpeg",
    "project": "Superior Manor Apts. Phase 11",
    "address": "2349 NW 51st. Street, Miami",
    "zipcode": 33142,
    "district": 3,
    "phone": "786-847-2159",
    "units": 76,
    "projectType": "Family",
    "housingType": "Public"
  },
  {
    "id": 218,
    "image": "/home2.jpeg",
    "project": "Temple Court Apartments",
    "address": "431 NW 3rd St,Miami",
    "zipcode": 33128,
    "district": 5,
    "phone": "305-577-8215",
    "units": 61,
    "projectType": "Elderly",
    "housingType": "Private"
  },
  {
    "id": 219,
    "image": "/home3.png",
    "project": "Tequesta Knoll Apartments",
    "address": "1629 NW 14 St, Miami",
    "zipcode": 33125,
    "district": 3,
    "phone": "305-324-4517",
    "units": 100,
    "projectType": "Family",
    "housingType": "Public"
  },
  {
    "id": 220,
    "image": "/home1.jpeg",
    "project": "The Atrium at Spring Garden",
    "address": "820 NW 7th Ave, Miami",
    "zipcode": 33136,
    "district": 3,
    "phone": "786-953-4922",
    "units": 47,
    "projectType": "Family",
    "housingType": "Private"
  },
  {
    "id": 221,
    "image": "/home2.jpeg",
    "project": "The Beacon",
    "address": "1000 NW 1st Ave, Miami",
    "zipcode": 33136,
    "district": 3,
    "phone": "305-520-5534",
    "units": 90,
    "projectType": "Family",
    "housingType": "Public"
  },
  {
    "id": 222,
    "image": "/home3.png",
    "project": "The Commons",
    "address": "20700 NW 27th Ave, Miami Gardens",
    "zipcode": 33056,
    "district": 1,
    "phone": "305-442-8628",
    "units": 24,
    "projectType": "Elderly",
    "housingType": "Private"
  },
  {
    "id": 223,
    "image": "/home1.jpeg",
    "project": "The Emerald",
    "address": "244 NW 72nd Terr, Miami",
    "zipcode": 33150,
    "district": 3,
    "phone": "305-754-0053",
    "units": 124,
    "projectType": "Family",
    "housingType": "Public"
  },
  {
    "id": 224,
    "image": "/home2.jpeg",
    "project": "The Gallery at River Pare",
    "address": "1355 NW 7th St. Miami",
    "zipcode": 33125,
    "district": 5,
    "phone": "305-902-6344",
    "units": 150,
    "projectType": "Family",
    "housingType": "Private"
  },
  {
    "id": 225,
    "image": "/home3.png",
    "project": "The Gallery at Smathers Plaza",
    "address": "1040 SW 29th Court, Miami",
    "zipcode": 33135,
    "district": 7,
    "phone": "786-536-6891",
    "units": 139,
    "projectType": "Elderly",
    "housingType": "Public"
  },
  {
    "id": 226,
    "image": "/home1.jpeg",
    "project": "The Gallery on the River",
    "address": "401 NW North River Dr., Miami",
    "zipcode": 33128,
    "district": 5,
    "phone": "786-954-2870",
    "units": 160,
    "projectType": "Family",
    "housingType": "Private"
  },
  {
    "id": 227,
    "image": "/home2.jpeg",
    "project": "The Landings at Homestead",
    "address": "201-301 NE  11 St, Homestead",
    "zipcode": 33030,
    "district": 8,
    "phone": "786-954-1334",
    "units": 101,
    "projectType": "Family",
    "housingType": "Public"
  },
  {
    "id": 228,
    "image": "/home3.png",
    "project": "The Pearl",
    "address": "3380 NW 17th Ave, Miami",
    "zipcode": 33147,
    "district": 3,
    "phone": "305-636-4490",
    "units": 100,
    "projectType": "Elderly",
    "housingType": "Private"
  },
  {
    "id": 229,
    "image": "/home1.jpeg",
    "project": "The Plaza at the Lyric",
    "address": "919 NW 2nd Ave, Miami",
    "zipcode": 33136,
    "district": 3,
    "phone": "305-374-0001",
    "units": 158,
    "projectType": "Family",
    "housingType": "Public"
  },
  {
    "id": 230,
    "image": "/home2.jpeg",
    "project": "The Villages Apartments",
    "address": "773 NW 67th St. Miami",
    "zipcode": 33150,
    "district": 3,
    "phone": "786-310-7281",
    "units": 150,
    "projectType": "Family",
    "housingType": "Private"
  },
  {
    "id": 231,
    "image": "/home3.png",
    "project": "Three Round Tower A",
    "address": "2870-2920 NW 18th Ave, Miami",
    "zipcode": 33142,
    "district": 3,
    "phone": "786-633-4360",
    "units": 128,
    "projectType": "Elderly",
    "housingType": "Public"
  },
  {
    "id": 232,
    "image": "/home1.jpeg",
    "project": "Three Round Tower B & C",
    "address": "2940 NW 18th Ave.Miami",
    "zipcode": 33142,
    "district": 3,
    "phone": "786-633-4360",
    "units": 263,
    "projectType": "Elderly",
    "housingType": "Private"
  },
  {
    "id": 233,
    "image": "/home2.jpeg",
    "project": "Town Center Apartments",
    "address": "420 Aladdin Street, Opa-locka",
    "zipcode": 33054,
    "district": 1,
    "phone": "305-221-0770",
    "units": 127,
    "projectType": "Family/Elderly",
    "housingType": "Public"
  },
  {
    "id": 234,
    "image": "/home3.png",
    "project": "Tucker Tower- Merrick Place",
    "address": "9910 Hibiscus Street, Miami",
    "zipcode": 33157,
    "district": 9,
    "phone": "786-954-1100",
    "units": 120,
    "projectType": "Elderly",
    "housingType": "Private"
  },
  {
    "id": 235,
    "image": "/home1.jpeg",
    "project": "Tuscan Place",
    "address": "600 NW 6 St, Miami",
    "zipcode": 33136,
    "district": 3,
    "phone": "305-371-0028",
    "units": 199,
    "projectType": "Family",
    "housingType": "Public"
  },
  {
    "id": 236,
    "image": "/home2.jpeg",
    "project": "Tuscan View Apartments",
    "address": "607 NW 6 St, Miami",
    "zipcode": 33136,
    "district": 3,
    "phone": "305-371-0028",
    "units": 175,
    "projectType": "Family",
    "housingType": "Private"
  },
  {
    "id": 237,
    "image": "/home3.png",
    "project": "Tuscany Cove I",
    "address": "5900 NW 7th Ave. Miami",
    "zipcode": 33127,
    "district": 3,
    "phone": "305-889-9912",
    "units": 160,
    "projectType": "Elderly",
    "housingType": "Public"
  },
  {
    "id": 238,
    "image": "/home1.jpeg",
    "project": "Tuscany Place Apartments",
    "address": "25400 SW 137 Ave, Miami",
    "zipcode": 33032,
    "district": 9,
    "phone": "305-257-5859",
    "units": 340,
    "projectType": "Family",
    "housingType": "Private"
  },
  {
    "id": 239,
    "image": "/home2.jpeg",
    "project": "Valencia Pointe",
    "address": "7755 NW 27 Ave, Miami",
    "zipcode": 33147,
    "district": 2,
    "phone": "305-835-8404",
    "units": 148,
    "projectType": "Family",
    "housingType": "Public"
  },
  {
    "id": 240,
    "image": "/home3.png",
    "project": "Veranda Holding",
    "address": "23950 SW 110 Court, Miami",
    "zipcode": 33032,
    "district": 8,
    "phone": "305-447-1776",
    "units": 5,
    "projectType": "Family",
    "housingType": "Private"
  },
  {
    "id": 241,
    "image": "/home1.jpeg",
    "project": "Veranda Senior",
    "address": "28355 SW 152 Ave, Miami",
    "zipcode": 33033,
    "district": 9,
    "phone": "305-246-7096",
    "units": 99,
    "projectType": "Elderly",
    "housingType": "Public"
  },
  {
    "id": 242,
    "image": "/home2.jpeg",
    "project": "Verbena",
    "address": "28250-28300 S. Dixie Hwy, Miami",
    "zipcode": 33033,
    "district": 9,
    "phone": "305-270-0870",
    "units": 110,
    "projectType": "Family",
    "housingType": "Private"
  },
  {
    "id": 243,
    "image": "/home3.png",
    "project": "Verde Gardens Apartments",
    "address": "12550 SW 282 St, Miami",
    "zipcode": 33033,
    "district": 9,
    "phone": "786-753-8990",
    "units": 145,
    "projectType": "Homeless",
    "housingType": "Public"
  },
  {
    "id": 244,
    "image": "/home1.jpeg",
    "project": "Villa Aurora",
    "address": "1398 SW 1st St. 12th Fl, Miami",
    "zipcode": 33135,
    "district": 5,
    "phone": "305-371-8300",
    "units": 76,
    "projectType": "Homeless",
    "housingType": "Private"
  },
  {
    "id": 245,
    "image": "/home2.jpeg",
    "project": "Villa Capri I",
    "address": "14500 SW 280 St, Homestead",
    "zipcode": 33032,
    "district": 9,
    "phone": "786-339-9603",
    "units": 220,
    "projectType": "Family",
    "housingType": "Public"
  },
  {
    "id": 246,
    "image": "/home3.png",
    "project": "Villa Capri II",
    "address": "14570 SW 280 St. Homestead",
    "zipcode": 33032,
    "district": 9,
    "phone": "786-339-9603",
    "units": 117,
    "projectType": "Family",
    "housingType": "Private"
  },
  {
    "id": 247,
    "image": "/home1.jpeg",
    "project": "Villa Capri Ill",
    "address": "14548 SW 284 St, Homestead",
    "zipcode": 33032,
    "district": 9,
    "phone": "786-339-9603",
    "units": 140,
    "projectType": "Family",
    "housingType": "Public"
  },
  {
    "id": 248,
    "image": "/home2.jpeg",
    "project": "Villa Esperanza Apts.",
    "address": "18350 NW 62 Ave, Miami",
    "zipcode": 33015,
    "district": 13,
    "phone": "305-621-2006",
    "units": 192,
    "projectType": "Family",
    "housingType": "Private"
  },
  {
    "id": 249,
    "image": "/home3.png",
    "project": "Villa Hermosa",
    "address": "11455 West Flagler St, Miami",
    "zipcode": 33174,
    "district": 12,
    "phone": "305-551-7020",
    "units": 76,
    "projectType": "Elderly",
    "housingType": "Public"
  },
  {
    "id": 250,
    "image": "/home1.jpeg",
    "project": "Villa Patricia Phase I",
    "address": "234-42 NE 79 St, Miami",
    "zipcode": 33142,
    "district": 3,
    "phone": "305-403-8900",
    "units": 125,
    "projectType": "Elderly",
    "housingType": "Private"
  },
  {
    "id": 251,
    "image": "/home2.jpeg",
    "project": "Villa Patricia Phase II",
    "address": "7855 NE 2nd Ave,Miami",
    "zipcode": 33138,
    "district": 3,
    "phone": "305-403-8900",
    "units": 125,
    "projectType": "Elderly",
    "housingType": "Public"
  },
  {
    "id": 252,
    "image": "/home3.png",
    "project": "Village Allapattah Phase I",
    "address": "2317 NW 17 Ave, Miami",
    "zipcode": 33142,
    "district": 3,
    "phone": "305-403-2400",
    "units": 110,
    "projectType": "Family",
    "housingType": "Private"
  },
  {
    "id": 253,
    "image": "/home1.jpeg",
    "project": "Village Carver",
    "address": "485 NW 71 St, Miami",
    "zipcode": 33150,
    "district": 3,
    "phone": "305-756-8380",
    "units": 100,
    "projectType": "Family",
    "housingType": "Public"
  },
  {
    "id": 254,
    "image": "/home2.jpeg",
    "project": "Village Carver II",
    "address": "495 NW71 St.",
    "zipcode": 33150,
    "district": 3,
    "phone": "305-360-1356",
    "units": 100,
    "projectType": "Family/Elderly",
    "housingType": "Private"
  },
  {
    "id": 255,
    "image": "/home3.png",
    "project": "Villas Del Lago",
    "address": "2100 NW 14 PL, Miami",
    "zipcode": 33169,
    "district": 1,
    "phone": "305- 654-7916",
    "units": 288,
    "projectType": "Family",
    "housingType": "Public"
  },
  {
    "id": 256,
    "image": "/home1.jpeg",
    "project": "Viscaya Villas Apartments                      8005 NW 8 St, Miami",
    "address": "",
    "zipcode": 33126,
    "district": 12,
    "phone": "305-269-0600",
    "units": 85,
    "projectType": "Family",
    "housingType": "Private"
  },
  {
    "id": 257,
    "image": "/home2.jpeg",
    "project": "Vista 12 Apartments",
    "address": "420 SW 12th Ave, Miami",
    "zipcode": 33130,
    "district": 5,
    "phone": "786-661-3318",
    "units": 72,
    "projectType": "Family",
    "housingType": "Public"
  },
  {
    "id": 258,
    "image": "/home3.png",
    "project": "Vista Mar",
    "address": "3606 NW 5th Ave, Miami",
    "zipcode": 33127,
    "district": 3,
    "phone": "305-270-0870",
    "units": 110,
    "projectType": "Family",
    "housingType": "Private"
  },
  {
    "id": 259,
    "image": "/home1.jpeg",
    "project": "Vista Palm",
    "address": "361 NE 191 St, Miami",
    "zipcode": 33179,
    "district": 1,
    "phone": "305-652-0206",
    "units": 170,
    "projectType": "Family",
    "housingType": "Public"
  },
  {
    "id": 260,
    "image": "/home2.jpeg",
    "project": "Wagner Creek Apartments",
    "address": "1501 NW 13th Ct., Miami",
    "zipcode": 33125,
    "district": 3,
    "phone": "786-773-2803",
    "units": 73,
    "projectType": "Family",
    "housingType": "Private"
  },
  {
    "id": 261,
    "image": "/home3.png",
    "project": "Walden Pond Villas",
    "address": "20880 NW 7 Ave, Miami",
    "zipcode": 33169,
    "district": 1,
    "phone": "305-653-4057",
    "units": 290,
    "projectType": "Family",
    "housingType": "Public"
  },
  {
    "id": 262,
    "image": "/home1.jpeg",
    "project": "Washington Square",
    "address": "1146 NW 7 Ct., Miami",
    "zipcode": 33136,
    "district": 3,
    "phone": "786-534-4326",
    "units": 67,
    "projectType": "Elderly",
    "housingType": "Private"
  },
  {
    "id": 263,
    "image": "/home2.jpeg",
    "project": "Waterford Apartments",
    "address": "19580 West Dixie Hwy, North Miami",
    "zipcode": 33180,
    "district": 4,
    "phone": "786-320-6231",
    "units": 72,
    "projectType": "Family",
    "housingType": "Public"
  },
  {
    "id": 264,
    "image": "/home3.png",
    "project": "Water's Edge Apartments",
    "address": "10955 SW 214th St. Miami",
    "zipcode": 33170,
    "district": 9,
    "phone": "786-732-4566",
    "units": 128,
    "projectType": "Family",
    "housingType": "Private"
  },
  {
    "id": 265,
    "image": "/home1.jpeg",
    "project": "Waterway Village",
    "address": "1945 Calais Dr, Miami Beach",
    "zipcode": 33141,
    "district": 4,
    "phone": "305-860-1400",
    "units": 10,
    "projectType": "Family",
    "housingType": "Public"
  },
  {
    "id": 266,
    "image": "/home2.jpeg",
    "project": "West Brickell Apartments",
    "address": "955 SW 2nd Ave, Miami",
    "zipcode": 33130,
    "district": 5,
    "phone": "305-250-9955",
    "units": 130,
    "projectType": "Elderly",
    "housingType": "Private"
  },
  {
    "id": 267,
    "image": "/home3.png",
    "project": "West Brickell Tower Apartments",
    "address": "1026 SW 2nd Ave, Miami",
    "zipcode": 33130,
    "district": 5,
    "phone": "305-859-7573",
    "units": 32,
    "projectType": "Elderly",
    "housingType": "Public"
  },
  {
    "id": 268,
    "image": "/home1.jpeg",
    "project": "Westview Garden Apartments",
    "address": "2300 NW 119 St, Miami",
    "zipcode": 33167,
    "district": 2,
    "phone": "305-687-8004",
    "units": 160,
    "projectType": "Elderly",
    "housingType": "Private"
  },
  {
    "id": 269,
    "image": "/home2.jpeg",
    "project": "Willow Lake",
    "address": "122 NW 202nd Terrace, Miami Gardens",
    "zipcode": 33169,
    "district": 1,
    "phone": "305-999-3400",
    "units": 121,
    "projectType": "Family",
    "housingType": "Public"
  },
  {
    "id": 270,
    "image": "/home3.png",
    "project": "Winchester Gardens",
    "address": "16440 SW 304 St, Miami",
    "zipcode": 33033,
    "district": 8,
    "phone": "305-248-9899",
    "units": 117,
    "projectType": "Family",
    "housingType": "Private"
  },
  {
    "id": 271,
    "image": "/home1.jpeg",
    "project": "Windmill Farms",
    "address": "12871 SW 242 St., Homestead",
    "zipcode": 33032,
    "district": 8,
    "phone": "305-257-1850",
    "units": 274,
    "projectType": "Family",
    "housingType": "Public"
  },
  {
    "id": 272,
    "image": "/home2.jpeg",
    "project": "Woodland Grove",
    "address": "26710-26715-26775-26780 SW 140 Ave. Naranja",
    "zipcode": 33032,
    "district": 9,
    "phone": "305-821-0330",
    "units": 190,
    "projectType": "Family",
    "housingType": "Private"
  },
  {
    "id": 273,
    "image": "/home3.png",
    "project": "Woodside Oaks",
    "address": "26000 SW 144 Avenue Road, Homestead",
    "zipcode": 33032,
    "district": 8,
    "phone": "305-257-0067",
    "units": 103,
    "projectType": "Family",
    "housingType": "Public"
  }
]